AQUA                    
1 27424U 02022A   26092.90490580  .00001579  00000+0  32447-3 0  9993
2 27424  98.4216  60.7186 0001329 115.9286 266.8537 14.62035849272275
CZ-4B R/B               
1 27432U 02024C   26092.40459576  .00000078  00000+0  63195-4 0  9997
2 27432  98.8786 145.6863 0049329 316.5339  53.4279 14.14551994232590
MIDORI II (ADEOS-II)    
1 27597U 02056A   26092.88518450  .00000494  00000+0  21211-3 0  9997
2 27597  98.7811  51.5364 0000475  21.5280 338.5921 14.29304650213757
H-2A R/B                
1 27601U 02056E   26092.66575434  .00000391  00000+0  15105-3 0  9995
2 27601  98.3245  52.1247 0071442  90.1278  82.6334 14.33777565217548
CZ-4B R/B               
1 28059U 03049C   26092.72720096  .00000449  00000+0  11429-3 0  9998
2 28059  98.6896  88.5790 0048582 157.0932 203.2445 14.55042200190095
CZ-2C R/B               
1 28222U 04012C   26092.63572758  .00070965  00000+0  64756-3 0  9992
2 28222  97.7172 160.2446 0013510 215.5005 144.5357 15.67539256208022
SL-16 R/B               
1 28353U 04021B   26092.71146074  .00000369  00000+0  21667-3 0  9999
2 28353  71.0011 182.0825 0005286 339.8426  20.2486 14.14598383126237
CZ-4B R/B               
1 28415U 04035C   26092.33416415  .00011245  00000+0  39052-3 0  9992
2 28415  97.3455 126.2948 0030189 242.9987 116.8171 15.29486524183529
CZ-2C R/B               
1 28480U 04046B   26092.74645200  .00000204  00000+0  90298-4 0  9990
2 28480  98.1977   6.2315 0140637  83.7867 277.9315 14.27001230111931
ARIANE 5 R/B            
1 28499U 04049H   26092.75020138  .00001097  00000+0  12727-3 0  9992
2 28499  98.2662 262.1141 0082827 273.1556  86.0184 14.85311956149363
CZ-2D R/B               
1 28738U 05024B   26092.29623543  .00063445  00000+0  71388-3 0  9993
2 28738  97.3564 108.3444 0001822 300.0803  60.0274 15.62381263143469
ALOS (DAICHI)           
1 28931U 06002A   26092.87382451  .00002155  00000+0  36847-3 0  9991
2 28931  98.1257  48.7154 0001041 113.3988 246.7327 14.69889016 77035
