CCSDS_OMM_VERS = 2.0
CREATION_DATE  = 
ORIGINATOR     = 

OBJECT_NAME    = AQUA
OBJECT_ID      = 2002-022A
CENTER_NAME    = EARTH
REF_FRAME      = TEME
TIME_SYSTEM    = UTC
MEAN_ELEMENT_THEORY = SGP/SGP4

EPOCH          = 2026-04-02T21:43:03.861120
MEAN_MOTION    = 14.62035849
ECCENTRICITY   = .0001329
INCLINATION    = 98.4216
RA_OF_ASC_NODE = 60.7186
ARG_OF_PERICENTER = 115.9286
MEAN_ANOMALY   = 266.8537

EPHEMERIS_TYPE = 0
CLASSIFICATION_TYPE = U
NORAD_CAT_ID   = 27424
ELEMENT_SET_NO = 999
REV_AT_EPOCH   = 27227
BSTAR          = .32447E-3
MEAN_MOTION_DOT = .1579E-4
MEAN_MOTION_DDOT = 0

CCSDS_OMM_VERS = 2.0
CREATION_DATE  = 
ORIGINATOR     = 

OBJECT_NAME    = CZ-4B R/B
OBJECT_ID      = 2002-024C
CENTER_NAME    = EARTH
REF_FRAME      = TEME
TIME_SYSTEM    = UTC
MEAN_ELEMENT_THEORY = SGP/SGP4

EPOCH          = 2026-04-02T09:42:37.073664
MEAN_MOTION    = 14.14551994
ECCENTRICITY   = .00493293
INCLINATION    = 98.8786
RA_OF_ASC_NODE = 145.6863
ARG_OF_PERICENTER = 316.5339
MEAN_ANOMALY   = 53.4279

EPHEMERIS_TYPE = 0
CLASSIFICATION_TYPE = U
NORAD_CAT_ID   = 27432
ELEMENT_SET_NO = 999
REV_AT_EPOCH   = 23259
BSTAR          = .63194872E-4
MEAN_MOTION_DOT = .78E-6
MEAN_MOTION_DDOT = 0

CCSDS_OMM_VERS = 2.0
CREATION_DATE  = 
ORIGINATOR     = 

OBJECT_NAME    = MIDORI II (ADEOS-II)
OBJECT_ID      = 2002-056A
CENTER_NAME    = EARTH
REF_FRAME      = TEME
TIME_SYSTEM    = UTC
MEAN_ELEMENT_THEORY = SGP/SGP4

EPOCH          = 2026-04-02T21:14:39.940800
MEAN_MOTION    = 14.29304650
ECCENTRICITY   = .0000475
INCLINATION    = 98.7811
RA_OF_ASC_NODE = 51.5364
ARG_OF_PERICENTER = 21.5280
MEAN_ANOMALY   = 338.5921

EPHEMERIS_TYPE = 0
CLASSIFICATION_TYPE = U
NORAD_CAT_ID   = 27597
ELEMENT_SET_NO = 999
REV_AT_EPOCH   = 21375
BSTAR          = .21211E-3
MEAN_MOTION_DOT = .494E-5
MEAN_MOTION_DDOT = 0

CCSDS_OMM_VERS = 2.0
CREATION_DATE  = 
ORIGINATOR     = 

OBJECT_NAME    = H-2A R/B
OBJECT_ID      = 2002-056E
CENTER_NAME    = EARTH
REF_FRAME      = TEME
TIME_SYSTEM    = UTC
MEAN_ELEMENT_THEORY = SGP/SGP4

EPOCH          = 2026-04-02T15:58:41.174976
MEAN_MOTION    = 14.33777565
ECCENTRICITY   = .00714424
INCLINATION    = 98.3245
RA_OF_ASC_NODE = 52.1247
ARG_OF_PERICENTER = 90.1278
MEAN_ANOMALY   = 82.6334

EPHEMERIS_TYPE = 0
CLASSIFICATION_TYPE = U
NORAD_CAT_ID   = 27601
ELEMENT_SET_NO = 999
REV_AT_EPOCH   = 21754
BSTAR          = .15104863E-3
MEAN_MOTION_DOT = .391E-5
MEAN_MOTION_DDOT = 0

CCSDS_OMM_VERS = 2.0
CREATION_DATE  = 
ORIGINATOR     = 

OBJECT_NAME    = CZ-4B R/B
OBJECT_ID      = 2003-049C
CENTER_NAME    = EARTH
REF_FRAME      = TEME
TIME_SYSTEM    = UTC
MEAN_ELEMENT_THEORY = SGP/SGP4

EPOCH          = 2026-04-02T17:27:10.162944
MEAN_MOTION    = 14.55042200
ECCENTRICITY   = .0048582
INCLINATION    = 98.6896
RA_OF_ASC_NODE = 88.5790
ARG_OF_PERICENTER = 157.0932
MEAN_ANOMALY   = 203.2445

EPHEMERIS_TYPE = 0
CLASSIFICATION_TYPE = U
NORAD_CAT_ID   = 28059
ELEMENT_SET_NO = 999
REV_AT_EPOCH   = 19009
BSTAR          = .11429E-3
MEAN_MOTION_DOT = .449E-5
MEAN_MOTION_DDOT = 0

CCSDS_OMM_VERS = 2.0
CREATION_DATE  = 
ORIGINATOR     = 

OBJECT_NAME    = CZ-2C R/B
OBJECT_ID      = 2004-012C
CENTER_NAME    = EARTH
REF_FRAME      = TEME
TIME_SYSTEM    = UTC
MEAN_ELEMENT_THEORY = SGP/SGP4

EPOCH          = 2026-04-02T15:15:26.862912
MEAN_MOTION    = 15.67539256
ECCENTRICITY   = .00135109
INCLINATION    = 97.7172
RA_OF_ASC_NODE = 160.2446
ARG_OF_PERICENTER = 215.5005
MEAN_ANOMALY   = 144.5357

EPHEMERIS_TYPE = 0
CLASSIFICATION_TYPE = U
NORAD_CAT_ID   = 28222
ELEMENT_SET_NO = 999
REV_AT_EPOCH   = 20802
BSTAR          = .64756429E-3
MEAN_MOTION_DOT = .70965E-3
MEAN_MOTION_DDOT = 0

CCSDS_OMM_VERS = 2.0
CREATION_DATE  = 
ORIGINATOR     = 

OBJECT_NAME    = SL-16 R/B
OBJECT_ID      = 2004-021B
CENTER_NAME    = EARTH
REF_FRAME      = TEME
TIME_SYSTEM    = UTC
MEAN_ELEMENT_THEORY = SGP/SGP4

EPOCH          = 2026-04-02T17:04:30.207936
MEAN_MOTION    = 14.14598383
ECCENTRICITY   = .0005286
INCLINATION    = 71.0011
RA_OF_ASC_NODE = 182.0825
ARG_OF_PERICENTER = 339.8426
MEAN_ANOMALY   = 20.2486

EPHEMERIS_TYPE = 0
CLASSIFICATION_TYPE = U
NORAD_CAT_ID   = 28353
ELEMENT_SET_NO = 999
REV_AT_EPOCH   = 12623
BSTAR          = .21667E-3
MEAN_MOTION_DOT = .369E-5
MEAN_MOTION_DDOT = 0

CCSDS_OMM_VERS = 2.0
CREATION_DATE  = 
ORIGINATOR     = 

OBJECT_NAME    = CZ-4B R/B
OBJECT_ID      = 2004-035C
CENTER_NAME    = EARTH
REF_FRAME      = TEME
TIME_SYSTEM    = UTC
MEAN_ELEMENT_THEORY = SGP/SGP4

EPOCH          = 2026-04-02T08:01:11.782560
MEAN_MOTION    = 15.29486524
ECCENTRICITY   = .00301895
INCLINATION    = 97.3455
RA_OF_ASC_NODE = 126.2948
ARG_OF_PERICENTER = 242.9987
MEAN_ANOMALY   = 116.8171

EPHEMERIS_TYPE = 0
CLASSIFICATION_TYPE = U
NORAD_CAT_ID   = 28415
ELEMENT_SET_NO = 999
REV_AT_EPOCH   = 18352
BSTAR          = .39051821E-3
MEAN_MOTION_DOT = .11245E-3
MEAN_MOTION_DDOT = 0

CCSDS_OMM_VERS = 2.0
CREATION_DATE  = 
ORIGINATOR     = 

OBJECT_NAME    = CZ-2C R/B
OBJECT_ID      = 2004-046B
CENTER_NAME    = EARTH
REF_FRAME      = TEME
TIME_SYSTEM    = UTC
MEAN_ELEMENT_THEORY = SGP/SGP4

EPOCH          = 2026-04-02T17:54:53.452800
MEAN_MOTION    = 14.27001230
ECCENTRICITY   = .0140637
INCLINATION    = 98.1977
RA_OF_ASC_NODE = 6.2315
ARG_OF_PERICENTER = 83.7867
MEAN_ANOMALY   = 277.9315

EPHEMERIS_TYPE = 0
CLASSIFICATION_TYPE = U
NORAD_CAT_ID   = 28480
ELEMENT_SET_NO = 999
REV_AT_EPOCH   = 11193
BSTAR          = .90298E-4
MEAN_MOTION_DOT = .204E-5
MEAN_MOTION_DDOT = 0

CCSDS_OMM_VERS = 2.0
CREATION_DATE  = 
ORIGINATOR     = 

OBJECT_NAME    = ARIANE 5 R/B
OBJECT_ID      = 2004-049H
CENTER_NAME    = EARTH
REF_FRAME      = TEME
TIME_SYSTEM    = UTC
MEAN_ELEMENT_THEORY = SGP/SGP4

EPOCH          = 2026-04-02T18:00:17.399232
MEAN_MOTION    = 14.85311956
ECCENTRICITY   = .0082827
INCLINATION    = 98.2662
RA_OF_ASC_NODE = 262.1141
ARG_OF_PERICENTER = 273.1556
MEAN_ANOMALY   = 86.0184

EPHEMERIS_TYPE = 0
CLASSIFICATION_TYPE = U
NORAD_CAT_ID   = 28499
ELEMENT_SET_NO = 999
REV_AT_EPOCH   = 14936
BSTAR          = .12727E-3
MEAN_MOTION_DOT = .1097E-4
MEAN_MOTION_DDOT = 0

CCSDS_OMM_VERS = 2.0
CREATION_DATE  = 
ORIGINATOR     = 

OBJECT_NAME    = CZ-2D R/B
OBJECT_ID      = 2005-024B
CENTER_NAME    = EARTH
REF_FRAME      = TEME
TIME_SYSTEM    = UTC
MEAN_ELEMENT_THEORY = SGP/SGP4

EPOCH          = 2026-04-02T07:06:34.741152
MEAN_MOTION    = 15.62381263
ECCENTRICITY   = .00018227
INCLINATION    = 97.3564
RA_OF_ASC_NODE = 108.3444
ARG_OF_PERICENTER = 300.0803
MEAN_ANOMALY   = 60.0274

EPHEMERIS_TYPE = 0
CLASSIFICATION_TYPE = U
NORAD_CAT_ID   = 28738
ELEMENT_SET_NO = 999
REV_AT_EPOCH   = 14346
BSTAR          = .71388408E-3
MEAN_MOTION_DOT = .63445E-3
MEAN_MOTION_DDOT = 0

CCSDS_OMM_VERS = 2.0
CREATION_DATE  = 
ORIGINATOR     = 

OBJECT_NAME    = ALOS (DAICHI)
OBJECT_ID      = 2006-002A
CENTER_NAME    = EARTH
REF_FRAME      = TEME
TIME_SYSTEM    = UTC
MEAN_ELEMENT_THEORY = SGP/SGP4

EPOCH          = 2026-04-02T20:58:18.437664
MEAN_MOTION    = 14.69889016
ECCENTRICITY   = .0001041
INCLINATION    = 98.1257
RA_OF_ASC_NODE = 48.7154
ARG_OF_PERICENTER = 113.3988
MEAN_ANOMALY   = 246.7327

EPHEMERIS_TYPE = 0
CLASSIFICATION_TYPE = U
NORAD_CAT_ID   = 28931
ELEMENT_SET_NO = 999
REV_AT_EPOCH   = 7703
BSTAR          = .36847E-3
MEAN_MOTION_DOT = .2155E-4
MEAN_MOTION_DDOT = 0

